<?xml version="1.0" encoding="UTF-8"?>
<ndm xmlns:xsi="http://www.w3.org/2001/XMLSchema-instance" xsi:noNamespaceSchemaLocation="https://sanaregistry.org/r/ndmxml_unqualified/ndmxml-2.0.0-master-2.0.xsd">
<omm id="CCSDS_OMM_VERS" version="2.0">
<header><CREATION_DATE/><ORIGINATOR/></header><body><segment><metadata><OBJECT_NAME>KUIPER-00079</OBJECT_NAME><OBJECT_ID>2025-151L</OBJECT_ID><CENTER_NAME>EARTH</CENTER_NAME><REF_FRAME>TEME</REF_FRAME><TIME_SYSTEM>UTC</TIME_SYSTEM><MEAN_ELEMENT_THEORY>SGP4</MEAN_ELEMENT_THEORY></metadata><data><meanElements><EPOCH>2025-11-29T03:23:49.519104</EPOCH><MEAN_MOTION>14.80173807</MEAN_MOTION><ECCENTRICITY>.00115867</ECCENTRICITY><INCLINATION>51.8993</INCLINATION><RA_OF_ASC_NODE>25.2036</RA_OF_ASC_NODE><ARG_OF_PERICENTER>267.6326</ARG_OF_PERICENTER><MEAN_ANOMALY>92.3310</MEAN_ANOMALY></meanElements><tleParameters><EPHEMERIS_TYPE>0</EPHEMERIS_TYPE><CLASSIFICATION_TYPE>U</CLASSIFICATION_TYPE><NORAD_CAT_ID>64826</NORAD_CAT_ID><ELEMENT_SET_NO>999</ELEMENT_SET_NO><REV_AT_EPOCH>2161</REV_AT_EPOCH><BSTAR>.52982549E-3</BSTAR><MEAN_MOTION_DOT>.3845E-4</MEAN_MOTION_DOT><MEAN_MOTION_DDOT>0</MEAN_MOTION_DDOT></tleParameters></data></segment></body></omm>
<omm id="CCSDS_OMM_VERS" version="2.0">
<header><CREATION_DATE/><ORIGINATOR/></header><body><segment><metadata><OBJECT_NAME>KUIPER-00080</OBJECT_NAME><OBJECT_ID>2025-151M</OBJECT_ID><CENTER_NAME>EARTH</CENTER_NAME><REF_FRAME>TEME</REF_FRAME><TIME_SYSTEM>UTC</TIME_SYSTEM><MEAN_ELEMENT_THEORY>SGP4</MEAN_ELEMENT_THEORY></metadata><data><meanElements><EPOCH>2025-11-29T07:25:24.622464</EPOCH><MEAN_MOTION>14.79948358</MEAN_MOTION><ECCENTRICITY>.00053275</ECCENTRICITY><INCLINATION>51.9007</INCLINATION><RA_OF_ASC_NODE>24.4548</RA_OF_ASC_NODE><ARG_OF_PERICENTER>284.8218</ARG_OF_PERICENTER><MEAN_ANOMALY>75.2154</MEAN_ANOMALY></meanElements><tleParameters><EPHEMERIS_TYPE>0</EPHEMERIS_TYPE><CLASSIFICATION_TYPE>U</CLASSIFICATION_TYPE><NORAD_CAT_ID>64827</NORAD_CAT_ID><ELEMENT_SET_NO>999</ELEMENT_SET_NO><REV_AT_EPOCH>2044</REV_AT_EPOCH><BSTAR>.73971078E-3</BSTAR><MEAN_MOTION_DOT>.5425E-4</MEAN_MOTION_DOT><MEAN_MOTION_DDOT>0</MEAN_MOTION_DDOT></tleParameters></data></segment></body></omm>
<omm id="CCSDS_OMM_VERS" version="2.0">
<header><CREATION_DATE/><ORIGINATOR/></header><body><segment><metadata><OBJECT_NAME>KUIPER-00082</OBJECT_NAME><OBJECT_ID>2025-151N</OBJECT_ID><CENTER_NAME>EARTH</CENTER_NAME><REF_FRAME>TEME</REF_FRAME><TIME_SYSTEM>UTC</TIME_SYSTEM><MEAN_ELEMENT_THEORY>SGP4</MEAN_ELEMENT_THEORY></metadata><data><meanElements><EPOCH>2025-11-29T06:55:51.342816</EPOCH><MEAN_MOTION>14.80005609</MEAN_MOTION><ECCENTRICITY>.00047058</ECCENTRICITY><INCLINATION>51.9021</INCLINATION><RA_OF_ASC_NODE>12.0546</RA_OF_ASC_NODE><ARG_OF_PERICENTER>302.4657</ARG_OF_PERICENTER><MEAN_ANOMALY>57.5850</MEAN_ANOMALY></meanElements><tleParameters><EPHEMERIS_TYPE>0</EPHEMERIS_TYPE><CLASSIFICATION_TYPE>U</CLASSIFICATION_TYPE><NORAD_CAT_ID>64828</NORAD_CAT_ID><ELEMENT_SET_NO>999</ELEMENT_SET_NO><REV_AT_EPOCH>2061</REV_AT_EPOCH><BSTAR>.49829266E-3</BSTAR><MEAN_MOTION_DOT>.3586E-4</MEAN_MOTION_DOT><MEAN_MOTION_DDOT>0</MEAN_MOTION_DDOT></tleParameters></data></segment></body></omm>
<omm id="CCSDS_OMM_VERS" version="2.0">
<header><CREATION_DATE/><ORIGINATOR/></header><body><segment><metadata><OBJECT_NAME>KUIPER-00083</OBJECT_NAME><OBJECT_ID>2025-151P</OBJECT_ID><CENTER_NAME>EARTH</CENTER_NAME><REF_FRAME>TEME</REF_FRAME><TIME_SYSTEM>UTC</TIME_SYSTEM><MEAN_ELEMENT_THEORY>SGP4</MEAN_ELEMENT_THEORY></metadata><data><meanElements><EPOCH>2025-11-29T06:44:33.642816</EPOCH><MEAN_MOTION>14.80003706</MEAN_MOTION><ECCENTRICITY>.00107359</ECCENTRICITY><INCLINATION>51.9026</INCLINATION><RA_OF_ASC_NODE>19.5899</RA_OF_ASC_NODE><ARG_OF_PERICENTER>268.9728</ARG_OF_PERICENTER><MEAN_ANOMALY>91.0005</MEAN_ANOMALY></meanElements><tleParameters><EPHEMERIS_TYPE>0</EPHEMERIS_TYPE><CLASSIFICATION_TYPE>U</CLASSIFICATION_TYPE><NORAD_CAT_ID>64829</NORAD_CAT_ID><ELEMENT_SET_NO>999</ELEMENT_SET_NO><REV_AT_EPOCH>2169</REV_AT_EPOCH><BSTAR>.48424021E-3</BSTAR><MEAN_MOTION_DOT>.3479E-4</MEAN_MOTION_DOT><MEAN_MOTION_DDOT>0</MEAN_MOTION_DDOT></tleParameters></data></segment></body></omm>
<omm id="CCSDS_OMM_VERS" version="2.0">
<header><CREATION_DATE/><ORIGINATOR/></header><body><segment><metadata><OBJECT_NAME>KUIPER-00084</OBJECT_NAME><OBJECT_ID>2025-151Q</OBJECT_ID><CENTER_NAME>EARTH</CENTER_NAME><REF_FRAME>TEME</REF_FRAME><TIME_SYSTEM>UTC</TIME_SYSTEM><MEAN_ELEMENT_THEORY>SGP4</MEAN_ELEMENT_THEORY></metadata><data><meanElements><EPOCH>2025-11-29T04:51:53.149536</EPOCH><MEAN_MOTION>14.79905691</MEAN_MOTION><ECCENTRICITY>.00114412</ECCENTRICITY><INCLINATION>51.9017</INCLINATION><RA_OF_ASC_NODE>29.9226</RA_OF_ASC_NODE><ARG_OF_PERICENTER>241.5559</ARG_OF_PERICENTER><MEAN_ANOMALY>118.4251</MEAN_ANOMALY></meanElements><tleParameters><EPHEMERIS_TYPE>0</EPHEMERIS_TYPE><CLASSIFICATION_TYPE>U</CLASSIFICATION_TYPE><NORAD_CAT_ID>64830</NORAD_CAT_ID><ELEMENT_SET_NO>999</ELEMENT_SET_NO><REV_AT_EPOCH>2035</REV_AT_EPOCH><BSTAR>.75219568E-3</BSTAR><MEAN_MOTION_DOT>.5518E-4</MEAN_MOTION_DOT><MEAN_MOTION_DDOT>0</MEAN_MOTION_DDOT></tleParameters></data></segment></body></omm>
<omm id="CCSDS_OMM_VERS" version="2.0">
<header><CREATION_DATE/><ORIGINATOR/></header><body><segment><metadata><OBJECT_NAME>KUIPER-00085</OBJECT_NAME><OBJECT_ID>2025-151R</OBJECT_ID><CENTER_NAME>EARTH</CENTER_NAME><REF_FRAME>TEME</REF_FRAME><TIME_SYSTEM>UTC</TIME_SYSTEM><MEAN_ELEMENT_THEORY>SGP4</MEAN_ELEMENT_THEORY></metadata><data><meanElements><EPOCH>2025-11-29T02:53:12.552288</EPOCH><MEAN_MOTION>14.79897287</MEAN_MOTION><ECCENTRICITY>.0007014</ECCENTRICITY><INCLINATION>51.9040</INCLINATION><RA_OF_ASC_NODE>12.8163</RA_OF_ASC_NODE><ARG_OF_PERICENTER>280.2914</ARG_OF_PERICENTER><MEAN_ANOMALY>79.7258</MEAN_ANOMALY></meanElements><tleParameters><EPHEMERIS_TYPE>0</EPHEMERIS_TYPE><CLASSIFICATION_TYPE>U</CLASSIFICATION_TYPE><NORAD_CAT_ID>64831</NORAD_CAT_ID><ELEMENT_SET_NO>999</ELEMENT_SET_NO><REV_AT_EPOCH>2058</REV_AT_EPOCH><BSTAR>.75267472E-3</BSTAR><MEAN_MOTION_DOT>.5517E-4</MEAN_MOTION_DOT><MEAN_MOTION_DDOT>0</MEAN_MOTION_DDOT></tleParameters></data></segment></body></omm>
<omm id="CCSDS_OMM_VERS" version="2.0">
<header><CREATION_DATE/><ORIGINATOR/></header><body><segment><metadata><OBJECT_NAME>KUIPER-00086</OBJECT_NAME><OBJECT_ID>2025-151S</OBJECT_ID><CENTER_NAME>EARTH</CENTER_NAME><REF_FRAME>TEME</REF_FRAME><TIME_SYSTEM>UTC</TIME_SYSTEM><MEAN_ELEMENT_THEORY>SGP4</MEAN_ELEMENT_THEORY></metadata><data><meanElements><EPOCH>2025-11-26T11:25:13.058976</EPOCH><MEAN_MOTION>14.80204060</MEAN_MOTION><ECCENTRICITY>.00108587</ECCENTRICITY><INCLINATION>51.9018</INCLINATION><RA_OF_ASC_NODE>34.4985</RA_OF_ASC_NODE><ARG_OF_PERICENTER>256.6927</ARG_OF_PERICENTER><MEAN_ANOMALY>103.2825</MEAN_ANOMALY></meanElements><tleParameters><EPHEMERIS_TYPE>0</EPHEMERIS_TYPE><CLASSIFICATION_TYPE>U</CLASSIFICATION_TYPE><NORAD_CAT_ID>64832</NORAD_CAT_ID><ELEMENT_SET_NO>999</ELEMENT_SET_NO><REV_AT_EPOCH>2005</REV_AT_EPOCH><BSTAR>.13664411E-2</BSTAR><MEAN_MOTION_DOT>.10286E-3</MEAN_MOTION_DOT><MEAN_MOTION_DDOT>0</MEAN_MOTION_DDOT></tleParameters></data></segment></body></omm>
<omm id="CCSDS_OMM_VERS" version="2.0">
<header><CREATION_DATE/><ORIGINATOR/></header><body><segment><metadata><OBJECT_NAME>KUIPER-00087</OBJECT_NAME><OBJECT_ID>2025-151T</OBJECT_ID><CENTER_NAME>EARTH</CENTER_NAME><REF_FRAME>TEME</REF_FRAME><TIME_SYSTEM>UTC</TIME_SYSTEM><MEAN_ELEMENT_THEORY>SGP4</MEAN_ELEMENT_THEORY></metadata><data><meanElements><EPOCH>2025-11-29T06:19:13.245600</EPOCH><MEAN_MOTION>14.79911629</MEAN_MOTION><ECCENTRICITY>.00005443</ECCENTRICITY><INCLINATION>51.9006</INCLINATION><RA_OF_ASC_NODE>4.6694</RA_OF_ASC_NODE><ARG_OF_PERICENTER>300.4664</ARG_OF_PERICENTER><MEAN_ANOMALY>59.6245</MEAN_ANOMALY></meanElements><tleParameters><EPHEMERIS_TYPE>0</EPHEMERIS_TYPE><CLASSIFICATION_TYPE>U</CLASSIFICATION_TYPE><NORAD_CAT_ID>64833</NORAD_CAT_ID><ELEMENT_SET_NO>999</ELEMENT_SET_NO><REV_AT_EPOCH>2070</REV_AT_EPOCH><BSTAR>-.73060088E-3</BSTAR><MEAN_MOTION_DOT>-.5783E-4</MEAN_MOTION_DOT><MEAN_MOTION_DDOT>0</MEAN_MOTION_DDOT></tleParameters></data></segment></body></omm>

</ndm>
