KUIPER-00079            
1 64826U 25151L   25333.14154536  .00003845  00000+0  52983-3 0  9994
2 64826  51.8993  25.2036 0011586 267.6326  92.3310 14.80173807 21611
KUIPER-00080            
1 64827U 25151M   25333.30931276  .00005425  00000+0  73971-3 0  9993
2 64827  51.9007  24.4548 0005327 284.8218  75.2154 14.79948358 20440
KUIPER-00082            
1 64828U 25151N   25333.28878869  .00003586  00000+0  49829-3 0  9990
2 64828  51.9021  12.0546 0004705 302.4657  57.5850 14.80005609 20611
KUIPER-00083            
1 64829U 25151P   25333.28094494  .00003479  00000+0  48424-3 0  9996
2 64829  51.9026  19.5899 0010735 268.9728  91.0005 14.80003706 21695
KUIPER-00084            
1 64830U 25151Q   25333.20269849  .00005518  00000+0  75220-3 0  9998
2 64830  51.9017  29.9226 0011441 241.5559 118.4251 14.79905691 20351
KUIPER-00085            
1 64831U 25151R   25333.12028417  .00005517  00000+0  75267-3 0  9994
2 64831  51.9040  12.8163 0007014 280.2914  79.7258 14.79897287 20587
KUIPER-00086            
1 64832U 25151S   25330.47584559  .00010286  00000+0  13664-2 0  9995
2 64832  51.9018  34.4985 0010858 256.6927 103.2825 14.80204060 20054
KUIPER-00087            
1 64833U 25151T   25333.26334775 -.00005783  00000+0 -73060-3 0  9994
2 64833  51.9006   4.6694 0000544 300.4664  59.6245 14.79911629 20701
